{"type": "FeatureCollection", "features": [ {"type": "Feature", "properties": {"norad_id": 41774, "name": "SKYSAT-C3", "group": "resource", "lat": -76.57581853531848, "lon": 167.82804071207568, "alt_km": 441.86808094161734, "timestamp": "2025-12-10T14:53:36.780009+00:00", "meta": {"OBJECT_NAME": "SKYSAT-C3", "OBJECT_ID": "2016-058E", "EPOCH": "2025-12-10T01:20:10.885056", "MEAN_MOTION": 15.44244525, "ECCENTRICITY": 0.00015989, "INCLINATION": 96.93, "RA_OF_ASC_NODE": 17.9267, "ARG_OF_PERICENTER": 105.6106, "MEAN_ANOMALY": 254.5321, "EPHEMERIS_TYPE": 0, "CLASSIFICATION_TYPE": "U", "NORAD_CAT_ID": 41774, "ELEMENT_SET_NO": 999, "REV_AT_EPOCH": 51684, "BSTAR": 0.00053806643, "MEAN_MOTION_DOT": 0.0002469, "MEAN_MOTION_DDOT": 0}, "tle": {"line1": "1 41774U 16058E   25344.05568154  .00024690  00000+0  53807-3 0  9991", "line2": "2 41774  96.9300  17.9267 0001598 105.6106 254.5321 15.44244525516848"}}, "geometry": {"type": "Point", "coordinates": [167.82804071207568, -76.57581853531848]}}, {"type": "Feature", "properties": {"norad_id": 41785, "name": "ALSAT 1B", "group": "resource", "lat": -52.16542305056596, "lon": 6.6421870663654685, "alt_km": 668.5464582005789, "timestamp": "2025-12-10T14:53:36.780019+00:00", "meta": {"OBJECT_NAME": "ALSAT 1B", "OBJECT_ID": "2016-059C", "EPOCH": "2025-12-10T06:58:36.803136", "MEAN_MOTION": 14.72071996, "ECCENTRICITY": 0.00106416, "INCLINATION": 97.7813, "RA_OF_ASC_NODE": 356.1858, "ARG_OF_PERICENTER": 110.134, "MEAN_ANOMALY": 250.1014, "EPHEMERIS_TYPE": 0, "CLASSIFICATION_TYPE": "U", "NORAD_CAT_ID": 41785, "ELEMENT_SET_NO": 999, "REV_AT_EPOCH": 49278, "BSTAR": 0.00014443787, "MEAN_MOTION_DOT": 8.62e-06, "MEAN_MOTION_DDOT": 0}, "tle": {"line1": "1 41785U 16059C   25344.29070374  .00000862  00000+0  14444-3 0  9991", "line2": "2 41785  97.7813 356.1858 0010641 110.1340 250.1014 14.72071996492789"}}, "geometry": {"type": "Point", "coordinates": [6.6421870663654685, -52.16542305056596]}}, {"type": "Feature", "properties": {"norad_id": 41787, "name": "PATHFINDER 1", "group": "resource", "lat": 60.88749749858678, "lon": -26.783364035927676, "alt_km": 644.6077288251336, "timestamp": "2025-12-10T14:53:36.780028+00:00", "meta": {"OBJECT_NAME": "PATHFINDER 1", "OBJECT_ID": "2016-059E", "EPOCH": "2025-12-09T12:25:38.745120", "MEAN_MOTION": 14.67312716, "ECCENTRICITY": 0.0030058, "INCLINATION": 97.8139, "RA_OF_ASC_NODE": 346.4409, "ARG_OF_PERICENTER": 90.9607, "MEAN_ANOMALY": 269.5043, "EPHEMERIS_TYPE": 0, "CLASSIFICATION_TYPE": "U", "NORAD_CAT_ID": 41787, "ELEMENT_SET_NO": 999, "REV_AT_EPOCH": 49189, "BSTAR": 0.00025681, "MEAN_MOTION_DOT": 1.412e-05, "MEAN_MOTION_DDOT": 0}, "tle": {"line1": "1 41787U 16059E   25343.51780955  .00001412  00000+0  25681-3 0  9997", "line2": "2 41787  97.8139 346.4409 0030058  90.9607 269.5043 14.67312716491891"}}, "geometry": {"type": "Point", "coordinates": [-26.783364035927676, 60.88749749858678]}}, {"type": "Feature", "properties": {"norad_id": 41790, "name": "SCATSAT 1", "group": "resource", "lat": -33.723746477107234, "lon": 46.75109576564406, "alt_km": 677.5169523178665, "timestamp": "2025-12-10T14:53:36.780037+00:00", "meta": {"OBJECT_NAME": "SCATSAT 1", "OBJECT_ID": "2016-059H", "EPOCH": "2025-12-10T03:40:56.846208", "MEAN_MOTION": 14.78922317, "ECCENTRICITY": 0.00561475, "INCLINATION": 98.1464, "RA_OF_ASC_NODE": 40.7913, "ARG_OF_PERICENTER": 136.1603, "MEAN_ANOMALY": 224.4085, "EPHEMERIS_TYPE": 0, "CLASSIFICATION_TYPE": "U", "NORAD_CAT_ID": 41790, "ELEMENT_SET_NO": 999, "REV_AT_EPOCH": 7364, "BSTAR": 0.00031975556, "MEAN_MOTION_DOT": 2.364e-05, "MEAN_MOTION_DDOT": 0}, "tle": {"line1": "1 41790U 16059H   25344.15343572  .00002364  00000+0  31976-3 0  9993", "line2": "2 41790  98.1464  40.7913 0056147 136.1603 224.4085 14.78922317 73641"}}, "geometry": {"type": "Point", "coordinates": [46.75109576564406, -33.723746477107234]}}, {"type": "Feature", "properties": {"norad_id": 41875, "name": "GOKTURK 1A", "group": "resource", "lat": 6.028570515041327, "lon": 57.879988798159296, "alt_km": 686.5066506259263, "timestamp": "2025-12-10T14:53:36.780046+00:00", "meta": {"OBJECT_NAME": "GOKTURK 1A", "OBJECT_ID": "2016-073A", "EPOCH": "2025-12-10T07:32:05.681760", "MEAN_MOTION": 14.62774659, "ECCENTRICITY": 0.00012583, "INCLINATION": 98.1426, "RA_OF_ASC_NODE": 236.7112, "ARG_OF_PERICENTER": 77.7337, "MEAN_ANOMALY": 282.4006, "EPHEMERIS_TYPE": 0, "CLASSIFICATION_TYPE": "U", "NORAD_CAT_ID": 41875, "ELEMENT_SET_NO": 999, "REV_AT_EPOCH": 48121, "BSTAR": 0.00014623119, "MEAN_MOTION_DOT": 6.99e-06, "MEAN_MOTION_DDOT": 0}, "tle": {"line1": "1 41875U 16073A   25344.31395465  .00000699  00000+0  14623-3 0  9998", "line2": "2 41875  98.1426 236.7112 0001258  77.7337 282.4006 14.62774659481218"}}, "geometry": {"type": "Point", "coordinates": [57.879988798159296, 6.028570515041327]}}, {"type": "Feature", "properties": {"norad_id": 41877, "name": "RESOURCESAT-2A", "group": "resource", "lat": 3.562637384839614, "lon": -124.96037815102615, "alt_km": 822.4016683440987, "timestamp": "2025-12-10T14:53:36.780055+00:00", "meta": {"OBJECT_NAME": "RESOURCESAT-2A", "OBJECT_ID": "2016-074A", "EPOCH": "2025-12-10T07:18:36.296928", "MEAN_MOTION": 14.21598632, "ECCENTRICITY": 0.00011277, "INCLINATION": 98.7755, "RA_OF_ASC_NODE": 54.1745, "ARG_OF_PERICENTER": 268.1384, "MEAN_ANOMALY": 91.9664, "EPHEMERIS_TYPE": 0, "CLASSIFICATION_TYPE": "U", "NORAD_CAT_ID": 41877, "ELEMENT_SET_NO": 999, "REV_AT_EPOCH": 46746, "BSTAR": 0.0002018392, "MEAN_MOTION_DOT": 3.98e-06, "MEAN_MOTION_DDOT": 0}, "tle": {"line1": "1 41877U 16074A   25344.30458677  .00000398  00000+0  20184-3 0  9990", "line2": "2 41877  98.7755  54.1745 0001127 268.1384  91.9664 14.21598632467462"}}, "geometry": {"type": "Point", "coordinates": [-124.96037815102615, 3.562637384839614]}}, {"type": "Feature", "properties": {"norad_id": 41948, "name": "CARTOSAT-2D", "group": "resource", "lat": 20.73635628966125, "lon": -135.01461850332728, "alt_km": 505.24778686581976, "timestamp": "2025-12-10T14:53:36.780065+00:00", "meta": {"OBJECT_NAME": "CARTOSAT-2D", "OBJECT_ID": "2017-008A", "EPOCH": "2025-12-10T07:52:22.744128", "MEAN_MOTION": 15.19215088, "ECCENTRICITY": 0.00044032, "INCLINATION": 97.4385, "RA_OF_ASC_NODE": 41.8621, "ARG_OF_PERICENTER": 169.362, "MEAN_ANOMALY": 190.7709, "EPHEMERIS_TYPE": 0, "CLASSIFICATION_TYPE": "U", "NORAD_CAT_ID": 41948, "ELEMENT_SET_NO": 999, "REV_AT_EPOCH": 48890, "BSTAR": 0.00028523993, "MEAN_MOTION_DOT": 5.94e-05, "MEAN_MOTION_DDOT": 0}, "tle": {"line1": "1 41948U 17008A   25344.32804102  .00005940  00000+0  28524-3 0  9991", "line2": "2 41948  97.4385  41.8621 0004403 169.3620 190.7709 15.19215088488906"}}, "geometry": {"type": "Point", "coordinates": [-135.01461850332728, 20.73635628966125]}}, {"type": "Feature", "properties": {"norad_id": 42063, "name": "SENTINEL-2B", "group": "resource", "lat": 72.46489444861132, "lon": 28.584689194578505, "alt_km": 781.2378982133805, "timestamp": "2025-12-10T14:53:36.780074+00:00", "meta": {"OBJECT_NAME": "SENTINEL-2B", "OBJECT_ID": "2017-013A", "EPOCH": "2025-12-10T07:49:57.732960", "MEAN_MOTION": 14.30815002, "ECCENTRICITY": 0.0001146, "INCLINATION": 98.5715, "RA_OF_ASC_NODE": 56.806, "ARG_OF_PERICENTER": 93.8588, "MEAN_ANOMALY": 266.2726, "EPHEMERIS_TYPE": 0, "CLASSIFICATION_TYPE": "U", "NORAD_CAT_ID": 42063, "ELEMENT_SET_NO": 999, "REV_AT_EPOCH": 45763, "BSTAR": 0.00016300666, "MEAN_MOTION_DOT": 3.84e-06, "MEAN_MOTION_DDOT": 0}, "tle": {"line1": "1 42063U 17013A   25344.32636265  .00000384  00000+0  16301-3 0  9996", "line2": "2 42063  98.5715  56.8060 0001146  93.8588 266.2726 14.30815002457630"}}, "geometry": {"type": "Point", "coordinates": [28.584689194578505, 72.46489444861132]}}, {"type": "Feature", "properties": {"norad_id": 42767, "name": "CARTOSAT-2E", "group": "resource", "lat": 68.59273540338575, "lon": 22.721037509231234, "alt_km": 502.93560080044244, "timestamp": "2025-12-10T14:53:36.780083+00:00", "meta": {"OBJECT_NAME": "CARTOSAT-2E", "OBJECT_ID": "2017-036C", "EPOCH": "2025-12-10T06:41:00.537216", "MEAN_MOTION": 15.19280161, "ECCENTRICITY": 0.00022969, "INCLINATION": 97.4556, "RA_OF_ASC_NODE": 41.8972, "ARG_OF_PERICENTER": 247.1172, "MEAN_ANOMALY": 112.982, "EPHEMERIS_TYPE": 0, "CLASSIFICATION_TYPE": "U", "NORAD_CAT_ID": 42767, "ELEMENT_SET_NO": 999, "REV_AT_EPOCH": 46946, "BSTAR": 0.00028931147, "MEAN_MOTION_DOT": 6.036e-05, "MEAN_MOTION_DDOT": 0}, "tle": {"line1": "1 42767U 17036C   25344.27847844  .00006036  00000+0  28931-3 0  9995", "line2": "2 42767  97.4556  41.8972 0002296 247.1172 112.9820 15.19280161469464"}}, "geometry": {"type": "Point", "coordinates": [22.721037509231234, 68.59273540338575]}}, {"type": "Feature", "properties": {"norad_id": 42920, "name": "FORMOSAT-5", "group": "resource", "lat": -74.69100960155897, "lon": 90.96854438632562, "alt_km": 723.0178961710544, "timestamp": "2025-12-10T14:53:36.780093+00:00", "meta": {"OBJECT_NAME": "FORMOSAT-5", "OBJECT_ID": "2017-049A", "EPOCH": "2025-12-10T06:58:21.382464", "MEAN_MOTION": 14.51003209, "ECCENTRICITY": 0.00099784, "INCLINATION": 98.2454, "RA_OF_ASC_NODE": 58.6581, "ARG_OF_PERICENTER": 303.8591, "MEAN_ANOMALY": 56.1653, "EPHEMERIS_TYPE": 0, "CLASSIFICATION_TYPE": "U", "NORAD_CAT_ID": 42920, "ELEMENT_SET_NO": 999, "REV_AT_EPOCH": 43928, "BSTAR": 0.00011794619, "MEAN_MOTION_DOT": 4.23e-06, "MEAN_MOTION_DDOT": 0}, "tle": {"line1": "1 42920U 17049A   25344.29052526  .00000423  00000+0  11795-3 0  9991", "line2": "2 42920  98.2454  58.6581 0009978 303.8591  56.1653 14.51003209439283"}}, "geometry": {"type": "Point", "coordinates": [90.96854438632562, -74.69100960155897]}}]}